{
  "type": "FeatureCollection",
  "features": [
    {
      "type": "Feature",
      "properties": {
        "norad_id": 37781,
        "name": "HAIYANG-2A",
        "group": "resource",
        "lat": 34.11321501319315,
        "lon": -24.968042002534574,
        "alt_km": 965.0856068550711,
        "timestamp": "2025-12-06T09:34:16.574733+00:00",
        "meta_object_name": "HAIYANG-2A",
        "meta_object_id": "2011-043A",
        "meta_epoch": "2025-12-05T22:57:16.907616",
        "meta_mean_motion": 13.78834591,
        "meta_eccentricity": 0.00016477,
        "meta_inclination": 99.3377,
        "meta_ra_of_asc_node": 340.9955,
        "meta_arg_of_pericenter": 94.0747,
        "meta_mean_anomaly": 266.0593,
        "meta_ephemeris_type": 0,
        "meta_classification_type": "U",
        "meta_norad_cat_id": 37781,
        "meta_element_set_no": 999,
        "meta_rev_at_epoch": 72005,
        "meta_bstar": 6.7965945e-05,
        "meta_mean_motion_dot": 2.5e-07,
        "meta_mean_motion_ddot": 0,
        "tle_line1": "1 37781U 11043A   25339.95644569  .00000025  00000+0  67966-4 0  9999",
        "tle_line2": "2 37781  99.3377 340.9955 0001647  94.0747 266.0593 13.78834591720054"
      },
      "geometry": {
        "type": "Point",
        "coordinates": [
          -24.968042002534574,
          34.11321501319315
        ]
      }
    },
    {
      "type": "Feature",
      "properties": {
        "norad_id": 37791,
        "name": "RASAT",
        "group": "resource",
        "lat": -75.99275276019462,
        "lon": 104.39229029026258,
        "alt_km": 689.867715022363,
        "timestamp": "2025-12-06T09:34:16.574743+00:00",
        "meta_object_name": "RASAT",
        "meta_object_id": "2011-044D",
        "meta_epoch": "2025-12-05T22:52:33.896640",
        "meta_mean_motion": 14.67894622,
        "meta_eccentricity": 0.00219435,
        "meta_inclination": 98.0657,
        "meta_ra_of_asc_node": 69.3117,
        "meta_arg_of_pericenter": 85.4734,
        "meta_mean_anomaly": 2.6149,
        "meta_ephemeris_type": 0,
        "meta_classification_type": "U",
        "meta_norad_cat_id": 37791,
        "meta_element_set_no": 999,
        "meta_rev_at_epoch": 76483,
        "meta_bstar": 0.00022263282,
        "meta_mean_motion_dot": 1.228e-05,
        "meta_mean_motion_ddot": 0,
        "tle_line1": "1 37791U 11044D   25339.95317010  .00001228  00000+0  22263-3 0  9995",
        "tle_line2": "2 37791  98.0657  69.3117 0021943  85.4734   2.6149 14.67894622764830"
      },
      "geometry": {
        "type": "Point",
        "coordinates": [
          104.39229029026258,
          -75.99275276019462
        ]
      }
    },
    {
      "type": "Feature",
      "properties": {
        "norad_id": 37841,
        "name": "SRMSAT",
        "group": "resource",
        "lat": -1.2200108191809613,
        "lon": -30.30583183008889,
        "alt_km": 847.7346863768526,
        "timestamp": "2025-12-06T09:34:16.574754+00:00",
        "meta_object_name": "SRMSAT",
        "meta_object_id": "2011-058D",
        "meta_epoch": "2025-12-05T19:15:39.477600",
        "meta_mean_motion": 14.11507797,
        "meta_eccentricity": 0.00117219,
        "meta_inclination": 19.9698,
        "meta_ra_of_asc_node": 149.9381,
        "meta_arg_of_pericenter": 236.4412,
        "meta_mean_anomaly": 150.7889,
        "meta_ephemeris_type": 0,
        "meta_classification_type": "U",
        "meta_norad_cat_id": 37841,
        "meta_element_set_no": 999,
        "meta_rev_at_epoch": 73046,
        "meta_bstar": 0.00015124686,
        "meta_mean_motion_dot": 5.44e-06,
        "meta_mean_motion_ddot": 0,
        "tle_line1": "1 37841U 11058D   25339.80254025  .00000544  00000+0  15125-3 0  9995",
        "tle_line2": "2 37841  19.9698 149.9381 0011721 236.4412 150.7889 14.11507797730466"
      },
      "geometry": {
        "type": "Point",
        "coordinates": [
          -30.30583183008889,
          -1.2200108191809613
        ]
      }
    },
    {
      "type": "Feature",
      "properties": {
        "norad_id": 38012,
        "name": "PLEIADES 1A",
        "group": "resource",
        "lat": -68.76816610763332,
        "lon": 75.00442452669537,
        "alt_km": 705.9446233587823,
        "timestamp": "2025-12-06T09:34:16.574764+00:00",
        "meta_object_name": "PLEIADES 1A",
        "meta_object_id": "2011-076F",
        "meta_epoch": "2025-12-05T22:52:24.157632",
        "meta_mean_motion": 14.58551273,
        "meta_eccentricity": 0.00013721,
        "meta_inclination": 98.1833,
        "meta_ra_of_asc_node": 52.8262,
        "meta_arg_of_pericenter": 79.9,
        "meta_mean_anomaly": 30.682,
        "meta_ephemeris_type": 0,
        "meta_classification_type": "U",
        "meta_norad_cat_id": 38012,
        "meta_element_set_no": 999,
        "meta_rev_at_epoch": 74382,
        "meta_bstar": 0.0001888797,
        "meta_mean_motion_dot": 8.32e-06,
        "meta_mean_motion_ddot": 0,
        "tle_line1": "1 38012U 11076F   25339.95305738  .00000832  00000+0  18888-3 0  9999",
        "tle_line2": "2 38012  98.1833  52.8262 0001372  79.9000  30.6820 14.58551273743825"
      },
      "geometry": {
        "type": "Point",
        "coordinates": [
          75.00442452669537,
          -68.76816610763332
        ]
      }
    },
    {
      "type": "Feature",
      "properties": {
        "norad_id": 38038,
        "name": "ZIYUAN 1-02C (ZY 1-02C)",
        "group": "resource",
        "lat": -53.35320983187541,
        "lon": 58.033963426625085,
        "alt_km": 776.3527775663388,
        "timestamp": "2025-12-06T09:34:16.574775+00:00",
        "meta_object_name": "ZIYUAN 1-02C (ZY 1-02C)",
        "meta_object_id": "2011-079A",
        "meta_epoch": "2025-12-05T22:56:21.830208",
        "meta_mean_motion": 14.3800031,
        "meta_eccentricity": 0.00069077,
        "meta_inclination": 98.4344,
        "meta_ra_of_asc_node": 46.0944,
        "meta_arg_of_pericenter": 157.2338,
        "meta_mean_anomaly": 16.6251,
        "meta_ephemeris_type": 0,
        "meta_classification_type": "U",
        "meta_norad_cat_id": 38038,
        "meta_element_set_no": 999,
        "meta_rev_at_epoch": 73143,
        "meta_bstar": 0.00032482739,
        "meta_mean_motion_dot": 9.39e-06,
        "meta_mean_motion_ddot": 0,
        "tle_line1": "1 38038U 11079A   25339.95580822  .00000939  00000+0  32483-3 0  9994",
        "tle_line2": "2 38038  98.4344  46.0944 0006907 157.2338  16.6251 14.38000310731433"
      },
      "geometry": {
        "type": "Point",
        "coordinates": [
          58.033963426625085,
          -53.35320983187541
        ]
      }
    },
    {
      "type": "Feature",
      "properties": {
        "norad_id": 38046,
        "name": "ZIYUAN 3-1 (ZY 3-1)",
        "group": "resource",
        "lat": 19.492796234467406,
        "lon": 44.117188922396544,
        "alt_km": 365.33838631977324,
        "timestamp": "2025-12-06T09:34:16.574785+00:00",
        "meta_object_name": "ZIYUAN 3-1 (ZY 3-1)",
        "meta_object_id": "2012-001A",
        "meta_epoch": "2025-12-05T22:45:42.045120",
        "meta_mean_motion": 15.67293771,
        "meta_eccentricity": 0.00020489,
        "meta_inclination": 97.1767,
        "meta_ra_of_asc_node": 46.2134,
        "meta_arg_of_pericenter": 20.1389,
        "meta_mean_anomaly": 339.9953,
        "meta_ephemeris_type": 0,
        "meta_classification_type": "U",
        "meta_norad_cat_id": 38046,
        "meta_element_set_no": 999,
        "meta_rev_at_epoch": 77390,
        "meta_bstar": 0.00079748444,
        "meta_mean_motion_dot": 0.00086313,
        "meta_mean_motion_ddot": 0,
        "tle_line1": "1 38046U 12001A   25339.94840330  .00086313  00000+0  79748-3 0  9996",
        "tle_line2": "2 38046  97.1767  46.2134 0002048  20.1389 339.9953 15.67293771773902"
      },
      "geometry": {
        "type": "Point",
        "coordinates": [
          44.117188922396544,
          19.492796234467406
        ]
      }
    },
    {
      "type": "Feature",
      "properties": {
        "norad_id": 38338,
        "name": "ARIRANG-3 (KOMPSAT-3)",
        "group": "resource",
        "lat": 63.39569811797962,
        "lon": 131.95307859933848,
        "alt_km": 683.3171612737679,
        "timestamp": "2025-12-06T09:34:16.574795+00:00",
        "meta_object_name": "ARIRANG-3 (KOMPSAT-3)",
        "meta_object_id": "2012-025B",
        "meta_epoch": "2025-12-05T23:11:18.549024",
        "meta_mean_motion": 14.61698412,
        "meta_eccentricity": 0.0005841,
        "meta_inclination": 98.3313,
        "meta_ra_of_asc_node": 294.505,
        "meta_arg_of_pericenter": 0.4885,
        "meta_mean_anomaly": 359.632,
        "meta_ephemeris_type": 0,
        "meta_classification_type": "U",
        "meta_norad_cat_id": 38338,
        "meta_element_set_no": 999,
        "meta_rev_at_epoch": 72311,
        "meta_bstar": 0.00023846306,
        "meta_mean_motion_dot": 1.139e-05,
        "meta_mean_motion_ddot": 0,
        "tle_line1": "1 38338U 12025B   25339.96618691  .00001139  00000+0  23846-3 0  9992",
        "tle_line2": "2 38338  98.3313 294.5050 0005841   0.4885 359.6320 14.61698412723116"
      },
      "geometry": {
        "type": "Point",
        "coordinates": [
          131.95307859933848,
          63.39569811797962
        ]
      }
    }
  ]
}